*******************************************************************************
JPL/HORIZONS                79 Eurynome (A863 RA)          2020-Jun-20 08:06:08
Rec #:      79 (+COV) Soln.date: 2020-Feb-22_15:16:41   # obs: 2761 (1863-2019)
 
IAU76/J2000 helio. ecliptic osc. elements (au, days, deg., period=Julian yrs):
 
  EPOCH=  2454484.5 ! 2008-Jan-19.00 (TDB)         Residual RMS= .36337
   EC= .1907430782048871   QR= 1.979911315502212   TP= 2454918.6434339271
   OM= 206.7338600414338   W=  200.605908833806    IN= 4.616619400458378
   A= 2.446579401644568    MA= 248.1854453223812   ADIST= 2.913247487786923
   PER= 3.8269             N= .257552096           ANGMOM= .026412733
   DAN= 2.86997            DDN= 2.00041            L= 47.2785173
   B= -1.6232247           MOID= .98995799         TP= 2009-Mar-28.1434339271
 
Asteroid physical parameters (km, seconds, rotational period in hours):
   GM= n.a.                RAD= 31.7395            ROTPER= 5.978
   H= 8.                   G= .250                 B-V= .874
                           ALBEDO= .287            STYP= S
 
ASTEROID comments: 
1: soln ref.= JPL#110, OCC=0
2: source=ORB
*******************************************************************************
 
 
*******************************************************************************
Ephemeris / WWW_USER Sat Jun 20 08:06:08 2020 Pasadena, USA      / Horizons
*******************************************************************************
Target body name: 79 Eurynome (A863 RA)           {source: JPL#110}
Center body name: Solar System Barycenter (0)     {source: DE431}
Center-site name: BODY CENTER
*******************************************************************************
Start time      : A.D. 1969-Jun-28 00:00:00.0000 TDB
Stop  time      : A.D. 2071-May-04 00:00:00.0000 TDB
Step-size       : 7200 minutes
*******************************************************************************
Center geodetic : 0.00000000,0.00000000,0.0000000 {E-lon(deg),Lat(deg),Alt(km)}
Center cylindric: 0.00000000,0.00000000,0.0000000 {E-lon(deg),Dxy(km),Dz(km)}
Center radii    : (undefined)                                                  
Small perturbers: Yes                             {source: SB431-N16}
Output units    : AU-D
Output type     : GEOMETRIC cartesian states
Output format   : 2 (position and velocity)
Reference frame : Ecliptic of J2000.0
*******************************************************************************
Initial IAU76/J2000 heliocentric ecliptic osculating elements (au, days, deg.):
  EPOCH=  2454484.5 ! 2008-Jan-19.00 (TDB)         Residual RMS= .36337        
   EC= .1907430782048871   QR= 1.979911315502212   TP= 2454918.6434339271      
   OM= 206.7338600414338   W=  200.605908833806    IN= 4.616619400458378       
  Equivalent ICRF heliocentric equatorial cartesian coordinates (au, au/d):
   X= 3.332982315676847E-01  Y=-2.521191102321573E+00  Z=-8.708219459461805E-01
  VX= 9.540960330045888E-03 VY= 2.566008155576626E-03 VZ= 1.265620009563182E-03
Asteroid physical parameters (km, seconds, rotational period in hours):        
   GM= n.a.                RAD= 31.7395            ROTPER= 5.978               
   H= 8.                   G= .250                 B-V= .874                   
                           ALBEDO= .287            STYP= S                     
*******************************************************************************
            JDTDB,            Calendar Date (TDB),        delta-T,                      X,                      Y,                      Z,                     VX,                     VY,                     VZ,
******************************************************************************************************************************************************************************************************************
$$SOE
2473720.500000000, A.D. 2060-Sep-18 00:00:00.0000,      69.182449, -2.238452410002446E+00, -1.861621812590236E+00,  5.438816857590671E-02,  5.531795520955386E-03, -7.183670289150392E-03,  7.181238023265192E-04,
2473725.500000000, A.D. 2060-Sep-23 00:00:00.0000,      69.182414, -2.210457678702392E+00, -1.897259023094571E+00,  5.797043255953050E-02,  5.665778752616010E-03, -7.070887639380022E-03,  7.147467466671156E-04,
2473730.500000000, A.D. 2060-Sep-28 00:00:00.0000,      69.182390, -2.181797814313177E+00, -1.932327443905866E+00,  6.153528654280037E-02,  5.797846873862828E-03, -6.956157922900262E-03,  7.111599894093765E-04,
2473735.500000000, A.D. 2060-Oct-03 00:00:00.0000,      69.182378, -2.152482420840940E+00, -1.966817391865467E+00,  6.508168478299578E-02,  5.927988459764993E-03, -6.839501912494258E-03,  7.073646280692670E-04,
2473740.500000000, A.D. 2060-Oct-08 00:00:00.0000,      69.182376, -2.122521160084917E+00, -2.000719286239629E+00,  6.860858689676105E-02,  6.056191814248354E-03, -6.720939809061484E-03,  7.033617090122757E-04,
2473745.500000000, A.D. 2060-Oct-13 00:00:00.0000,      69.182386, -2.091923753049275E+00, -2.034023645915869E+00,  7.211495760639856E-02,  6.182444947723053E-03, -6.600491263924660E-03,  6.991522282735216E-04,
2473750.500000000, A.D. 2060-Oct-18 00:00:00.0000,      69.182409, -2.060699981465753E+00, -2.066721086710805E+00,  7.559976649030056E-02,  6.306735555121212E-03, -6.478175401111365E-03,  6.947371323959619E-04,
2473755.500000000, A.D. 2060-Oct-23 00:00:00.0000,      69.182445, -2.028859689425138E+00, -2.098802318789299E+00,  7.906198773762421E-02,  6.429050994332912E-03, -6.354010839592516E-03,  6.901173192857740E-04,
2473760.500000000, A.D. 2060-Oct-28 00:00:00.0000,      69.182493, -1.996412785115484E+00, -2.130258144194624E+00,  8.250059990726723E-02,  6.549378265080764E-03, -6.228015715451238E-03,  6.852936390771684E-04,
2473765.500000000, A.D. 2060-Nov-02 00:00:00.0000,      69.182552, -1.963369242664718E+00, -2.161079454489398E+00,  8.591458569115711E-02,  6.667703988294773E-03, -6.100207704049733E-03,  6.802668949893602E-04,
2473770.500000000, A.D. 2060-Nov-07 00:00:00.0000,      69.182621, -1.929739104085328E+00, -2.191257228507896E+00,  8.930293168178983E-02,  6.784014385860257E-03, -5.970604042463880E-03,  6.750378441717832E-04,
2473775.500000000, A.D. 2060-Nov-12 00:00:00.0000,      69.182699, -1.895532481319978E+00, -2.220782530221606E+00,  9.266462814402479E-02,  6.898295260461529E-03, -5.839221552343837E-03,  6.696071985674618E-04,
2473780.500000000, A.D. 2060-Nov-17 00:00:00.0000,      69.182789, -1.860759558387946E+00, -2.249646506719917E+00,  9.599866879130681E-02,  7.010531975406150E-03, -5.706076663073392E-03,  6.639756258238228E-04,
2473785.500000000, A.D. 2060-Nov-22 00:00:00.0000,      69.182890, -1.825430593632340E+00, -2.277840386306966E+00,  9.930405056656862E-02,  7.120709434514024E-03, -5.571185435058125E-03,  6.581437502522382E-04,
2473790.500000000, A.D. 2060-Nov-27 00:00:00.0000,      69.182999, -1.789555922067525E+00, -2.305355476715160E+00,  1.025797734280323E-01,  7.228812062147504E-03, -5.434563583102960E-03,  6.521121538253519E-04,
2473795.500000000, A.D. 2060-Dec-02 00:00:00.0000,      69.183115, -1.753145957825993E+00, -2.332183163435861E+00,  1.058248401400639E-01,  7.334823783407152E-03, -5.296226499919361E-03,  6.458813772008595E-04,
2473800.500000000, A.D. 2060-Dec-07 00:00:00.0000,      69.183237, -1.716211196703847E+00, -2.358314908168103E+00,  1.090382560691985E-01,  7.438728004482940E-03, -5.156189279838641E-03,  6.394519207637161E-04,
2473805.500000000, A.D. 2060-Dec-12 00:00:00.0000,      69.183364, -1.678762218804252E+00, -2.383742247386565E+00,  1.122190289854207E-01,  7.540507593104597E-03, -5.014466742815482E-03,  6.328242456876421E-04,
2473810.500000000, A.D. 2060-Dec-17 00:00:00.0000,      69.183497, -1.640809691278587E+00, -2.408456791030351E+00,  1.153661688688249E-01,  7.640144858999265E-03, -4.871073458735560E-03,  6.259987750287135E-04,
2473815.500000000, A.D. 2060-Dec-22 00:00:00.0000,      69.183636, -1.602364371165391E+00, -2.432450221313958E+00,  1.184786877218475E-01,  7.737621534308277E-03, -4.726023771982965E-03,  6.189758948600223E-04,
2473820.500000000, A.D. 2060-Dec-27 00:00:00.0000,      69.183778, -1.563437108327223E+00, -2.455714291661454E+00,  1.215555993872697E-01,  7.832918754032258E-03, -4.579331826126175E-03,  6.117559554445013E-04,
2473825.500000000, A.D. 2061-Jan-01 00:00:00.0000,      69.183920, -1.524038848484965E+00, -2.478240825764372E+00,  1.245959193721498E-01,  7.926017036629172E-03, -4.431011588726847E-03,  6.043392724293643E-04,
2473830.500000000, A.D. 2061-Jan-06 00:00:00.0000,      69.184062, -1.484180636348402E+00, -2.500021716764090E+00,  1.275986646777322E-01,  8.016896264930998E-03, -4.281076876361682E-03,  5.967261280411030E-04,
2473835.500000000, A.D. 2061-Jan-11 00:00:00.0000,      69.184203, -1.443873618841304E+00, -2.521048926560360E+00,  1.305628536353243E-01,  8.105535667416010E-03, -4.129541380105376E-03,  5.889167722762546E-04,
2473840.500000000, A.D. 2061-Jan-16 00:00:00.0000,      69.184343, -1.403129048419424E+00, -2.541314485248988E+00,  1.334875057481324E-01,  8.191913799752705E-03, -3.976418691745883E-03,  5.809114241004791E-04,
2473845.500000000, A.D. 2061-Jan-21 00:00:00.0000,      69.184483, -1.361958286480442E+00, -2.560810490692781E+00,  1.363716415391728E-01,  8.276008526438334E-03, -3.821722330887095E-03,  5.727102726801965E-04,
2473850.500000000, A.D. 2061-Jan-26 00:00:00.0000,      69.184618, -1.320372806865786E+00, -2.579529108230222E+00,  1.392142824054461E-01,  8.357797002409493E-03, -3.665465772929824E-03,  5.643134786599771E-04,
2473855.500000000, A.D. 2061-Jan-31 00:00:00.0000,      69.184748, -1.278384199454513E+00, -2.597462570526210E+00,  1.420144504786184E-01,  8.437255654596052E-03, -3.507662477932020E-03,  5.557211754868335E-04,
